{
  "norad_id": 64010,
  "name": "STARLINK-34113",
  "history": [
    {
      "epoch": "2026-03-28T17:27:00.512064Z",
      "apogee_km": 483.7178049507056,
      "perigee_km": 482.35394100701524,
      "latitude_deg": 5.100030419302526e-05,
      "longitude_deg": 162.82613306025806,
      "height_km": 482.53687099149477,
      "semi_major_axis_km": 6861.17287297886,
      "eccentricity": 9.939e-05,
      "inclination_deg": 42.9964,
      "raan_deg": 250.7216,
      "arg_perigee_deg": 293.7745,
      "mean_anomaly_deg": 66.3003,
      "mean_motion_rev_day": 15.27584416
    }
  ]
}